AMOS-17                 
1 44479U 19050A   26117.21711356  .00000099  00000+0  00000+0 0  9992
2 44479   0.0154 329.6214 0001409  68.1223 272.6242  1.00269569 24675
